     2              NAVIGATION DATA                         RINEX VERSION / TYPE
CCRINEXN V1.6.0 UX  CDDIS               01-SEP-16 15:33     PGM / RUN BY / DATE 
IGS BROADCAST EPHEMERIS FILE                                COMMENT             
    0.1024D-07  0.2235D-07 -0.5960D-07 -0.1192D-06          ION ALPHA           
    0.9421D+05  0.9830D+05 -0.1311D+06 -0.5243D+06          ION BETA            
   -0.186264514923D-08-0.621724893790D-14   405504     1912 DELTA-UTC: A0,A1,T,W
    17                                                      LEAP SECONDS        
                                                            END OF HEADER       
25 16  8 31  2  0  0.0-0.236864667386D-03-0.693489710102D-11 0.000000000000D+00
    0.110000000000D+03 0.965937500000D+02 0.377944314326D-08-0.166290064550D+01
    0.502914190292D-05 0.557669065893D-02 0.105183571577D-04 0.515371192169D+04
    0.266400000000D+06 0.782310962677D-07 0.271153833617D+00-0.949949026108D-07
    0.978632167112D+00 0.189875000000D+03 0.791041043658D+00-0.763103214883D-08
    0.115361948145D-09 0.100000000000D+01 0.191200000000D+04 0.000000000000D+00
    0.200000000000D+01 0.000000000000D+00 0.558793544769D-08 0.110000000000D+03
    0.259218000000D+06 0.400000000000D+01 0.000000000000D+00 0.000000000000D+00
26 16  8 31  2  0  0.0-0.459740404040D-03-0.795807864051D-11 0.000000000000D+00
    0.540000000000D+02 0.107000000000D+03 0.421731852539D-08-0.220391483129D+01
    0.557675957680D-05 0.931017217226D-03 0.103358179331D-04 0.515357485008D+04
    0.266400000000D+06 0.391155481338D-07 0.260507747193D+00 0.987201929092D-07
    0.960548959200D+00 0.180906250000D+03-0.304426025480D-01-0.792354433314D-08
    0.190007914592D-09 0.100000000000D+01 0.191200000000D+04 0.000000000000D+00
    0.200000000000D+01 0.000000000000D+00 0.698491930962D-08 0.540000000000D+02
    0.259200000000D+06 0.400000000000D+01 0.000000000000D+00 0.000000000000D+00
27 16  8 31  2  0  0.0 0.133237801492D-03 0.466116034659D-11 0.000000000000D+00
    0.850000000000D+02 0.231562500000D+02 0.456554731623D-08 0.227125687110D+01
    0.118277966976D-05 0.380121869966D-02 0.153295695782D-05 0.515364565849D+04
    0.266400000000D+06-0.726431608200D-07 0.131186297496D+01-0.186264514923D-07
    0.971973439464D+00 0.355187500000D+03 0.348149330434D+00-0.843820862812D-08
    0.118219210019D-09 0.100000000000D+01 0.191200000000D+04 0.000000000000D+00
    0.200000000000D+01 0.000000000000D+00 0.186264514923D-08 0.850000000000D+02
    0.259200000000D+06 0.400000000000D+01 0.000000000000D+00 0.000000000000D+00
28 16  8 31  2  0  0.0 0.548445153981D-03 0.272848410532D-11 0.000000000000D+00
    0.103000000000D+03 0.112343750000D+03 0.342264256680D-08 0.312445972361D+01
    0.582449138165D-05 0.198157193372D-01 0.108163803816D-04 0.515363686752D+04
    0.266400000000D+06 0.251457095146D-06 0.346799073139D+00-0.447034835815D-07
    0.989688664963D+00 0.180593750000D+03-0.161248105394D+01-0.725173063512D-08
    0.236795577772D-09 0.100000000000D+01 0.191200000000D+04 0.000000000000D+00
    0.400000000000D+01 0.000000000000D+00-0.107102096081D-07 0.103000000000D+03
    0.265080000000D+06 0.400000000000D+01 0.000000000000D+00 0.000000000000D+00
29 16  8 31  2  0  0.0 0.652294140309D-03-0.102318153950D-11 0.000000000000D+00
    0.700000000000D+02 0.146875000000D+02 0.434839541384D-08-0.200832417481D+01
    0.849366188049D-06 0.605319277383D-03 0.168010592461D-05 0.515375648498D+04
    0.266400000000D+06-0.186264514923D-07 0.137216970860D+01 0.204890966415D-07
    0.978021780636D+00 0.355906250000D+03 0.114726092448D+00-0.828534511788D-08
    0.103218585183D-09 0.100000000000D+01 0.191200000000D+04 0.000000000000D+00
    0.200000000000D+01 0.000000000000D+00-0.102445483208D-07 0.700000000000D+02
    0.259200000000D+06 0.400000000000D+01 0.000000000000D+00 0.000000000000D+00
30 16  8 31  2  0  0.0 0.148123595864D-03 0.181898940355D-11 0.000000000000D+00
    0.550000000000D+02-0.414375000000D+02 0.469340978507D-08-0.446924619953D+00
   -0.230595469475D-05 0.240286113694D-02 0.102613121271D-04 0.515377742767D+04
    0.266400000000D+06 0.484287738800D-07-0.711648157654D+00-0.502914190292D-07
    0.951082082763D+00 0.177312500000D+03 0.312296492562D+01-0.808890836407D-08
   -0.721458623076D-09 0.100000000000D+01 0.191200000000D+04 0.000000000000D+00
    0.200000000000D+01 0.000000000000D+00 0.372529029846D-08 0.550000000000D+02
    0.259200000000D+06 0.400000000000D+01 0.000000000000D+00 0.000000000000D+00
32 16  8 31  2  0  0.0-0.977767631412D-04-0.135287336889D-10 0.000000000000D+00
    0.111000000000D+03 0.122500000000D+02 0.514735726523D-08 0.264837909514D+01
    0.642612576485D-06 0.657653901726D-03 0.412389636040D-05 0.515363096428D+04
    0.266400000000D+06-0.447034835815D-07-0.183135311393D+01-0.223517417908D-07
    0.958787601443D+00 0.298812500000D+03-0.229934869742D+01-0.838213486385D-08
    0.703600736366D-10 0.100000000000D+01 0.191200000000D+04 0.000000000000D+00
    0.200000000000D+01 0.000000000000D+00 0.931322574616D-09 0.111000000000D+03
    0.260610000000D+06 0.400000000000D+01 0.000000000000D+00 0.000000000000D+00
 3 16  8 31  3 59 44.0-0.841668806970D-04-0.238742359215D-11 0.000000000000D+00
    0.800000000000D+01 0.191250000000D+02 0.443054171129D-08 0.711242802072D+00
    0.998377799988D-06 0.151177286170D-03 0.117998570204D-04 0.515363712501D+04
    0.273584000000D+06 0.204890966415D-07-0.287186341106D+01 0.409781932831D-07
    0.959856090476D+00 0.155812500000D+03-0.106134424308D+00-0.789318566064D-08
    0.588953108505D-09 0.100000000000D+01 0.191200000000D+04 0.000000000000D+00
    0.200000000000D+01 0.000000000000D+00 0.139698386192D-08 0.800000000000D+01
    0.266400000000D+06 0.000000000000D+00 0.000000000000D+00 0.000000000000D+00
 8 16  8 31  3 59 44.0-0.299820676446D-04-0.147792889038D-11 0.000000000000D+00
    0.120000000000D+02 0.260937500000D+02 0.476091259683D-08-0.213849484933D+01
    0.140443444252D-05 0.170099502429D-02 0.155717134476D-05 0.515373742294D+04
    0.273584000000D+06 0.204890966415D-07 0.130835703035D+01 0.186264514923D-08
    0.963881806963D+00 0.352000000000D+03-0.102216853015D+01-0.852785521940D-08
    0.960754304988D-10 0.100000000000D+01 0.191200000000D+04 0.000000000000D+00
    0.200000000000D+01 0.000000000000D+00 0.512227416039D-08 0.120000000000D+02
    0.270330000000D+06 0.400000000000D+01 0.000000000000D+00 0.000000000000D+00
10 16  8 31  3 59 44.0-0.911932438612D-04-0.534328137292D-11 0.000000000000D+00
    0.180000000000D+02 0.156562500000D+02 0.434982404477D-08-0.987367049081D+00
    0.804662704468D-06 0.168446812313D-02 0.115334987640D-04 0.515368636704D+04
    0.273584000000D+06-0.372529029846D-08-0.287578703635D+01-0.149011611938D-07
    0.960078582761D+00 0.154968750000D+03-0.281653212033D+01-0.788532845558D-08
    0.537165232231D-09 0.100000000000D+01 0.191200000000D+04 0.000000000000D+00
    0.200000000000D+01 0.000000000000D+00 0.232830643654D-08 0.180000000000D+02
    0.266400000000D+06 0.400000000000D+01 0.000000000000D+00 0.000000000000D+00
17 16  8 31  3 59 44.0-0.202962197363D-03 0.454747350886D-12 0.000000000000D+00
    0.300000000000D+01 0.176562500000D+02 0.438303971405D-08-0.296170956065D+01
    0.103935599327D-05 0.111156362109D-01 0.141561031342D-05 0.515373350716D+04
    0.273584000000D+06 0.428408384323D-07 0.136228221543D+01-0.596046447754D-07
    0.977018256869D+00 0.360312500000D+03-0.192404123935D+01-0.812891003030D-08
    0.118219210019D-09 0.000000000000D+00 0.191200000000D+04 0.000000000000D+00
    0.200000000000D+01 0.000000000000D+00-0.107102096081D-07 0.300000000000D+01
    0.267450000000D+06 0.400000000000D+01 0.000000000000D+00 0.000000000000D+00
25 16  8 31  3 59 44.0-0.236914493144D-03-0.693489710102D-11 0.000000000000D+00
    0.110000000000D+02 0.887187500000D+02 0.393016370709D-08-0.615007663526D+00
    0.453367829323D-05 0.557618390303D-02 0.105742365122D-04 0.515371223068D+04
    0.273584000000D+06 0.502914190292D-07 0.271098813268D+00 0.106170773506D-06
    0.978631912564D+00 0.184625000000D+03 0.790965829187D+00-0.781175396234D-08
    0.410731394325D-10 0.100000000000D+01 0.191200000000D+04 0.000000000000D+00
    0.200000000000D+01 0.000000000000D+00 0.558793544769D-08 0.110000000000D+02
    0.270510000000D+06 0.400000000000D+01 0.000000000000D+00 0.000000000000D+00
28 16  8 31  3 59 44.0 0.548469834030D-03 0.284217094304D-11 0.000000000000D+00
    0.600000000000D+01 0.122625000000D+03 0.358122065336D-08-0.211090279825D+01
    0.625476241112D-05 0.198175249388D-01 0.104811042547D-04 0.515363327980D+04
    0.273584000000D+06 0.379979610443D-06 0.346747262432D+00 0.126659870148D-06
    0.989690154213D+00 0.191656250000D+03-0.161244038775D+01-0.734066274433D-08
    0.186793497336D-09 0.100000000000D+01 0.191200000000D+04 0.000000000000D+00
    0.200000000000D+01 0.000000000000D+00-0.107102096081D-07 0.600000000000D+01
    0.271500000000D+06 0.000000000000D+00 0.000000000000D+00 0.000000000000D+00
32 16  8 31  3 59 44.0-0.978740863502D-04-0.135287336889D-10 0.000000000000D+00
    0.000000000000D+00 0.191875000000D+02 0.517700135717D-08-0.258687521467D+01
    0.104121863842D-05 0.656658201478D-03 0.418350100517D-05 0.515363284111D+04
    0.273584000000D+06 0.102445483208D-06-0.183141421855D+01-0.577419996262D-07
    0.958788126631D+00 0.297500000000D+03-0.229940202225D+01-0.846820987779D-08
    0.170007081477D-09 0.100000000000D+01 0.191200000000D+04 0.000000000000D+00
    0.200000000000D+01 0.000000000000D+00 0.931322574616D-09 0.000000000000D+00
    0.269730000000D+06 0.400000000000D+01 0.000000000000D+00 0.000000000000D+00
